ID,full_name,sigma_e,sigma_a,sigma_i,sigma_om,sigma_w,sigma_ma,sigma_ad,sigma_n,sigma_tp,sigma_per,a,e,i,om,w,ad,q,per_y,n_obs_used,ma,condition_code,H,epoch_mjd,data_arc
2864,351630 (2005 XQ64),4.2856e-08,1.2305e-08,4.6425e-06,4.3549e-05,4.4542e-05,1.2483e-05,1.5445e-08,2.4346e-09,3.9595e-05,1.008e-05,2.235528441941152,0.2551525308010519,5.993136017786749,106.3231360443729,270.9606637830453,2.805929181580169,1.665127702302135,3.34255453539298,359,146.5420891046189,0.0,17.43,60200,6343.0
14578,       (2015 ON21),1.2829e-07,2.7686e-07,1.5512e-05,1.9371e-05,0.00010252,7.3555e-05,4.0869e-07,3.7337e-08,0.00034545,0.00024487,2.605974274534912,0.4761540055813384,16.89800337921321,340.4952678578763,48.08438082603261,3.846819363796633,1.365129185273191,4.20691162170843,176,313.0637900278911,1.0,17.9,60200,2939.0
9727,       (2010 SH48),2.1353e-05,3.0938e-07,0.00067897,0.000752,0.0051708,0.0061389,3.9514e-07,5.6913e-08,0.021791,0.00025716,2.30162129243548,0.2771869731445024,8.403350763439784,32.95478916777598,284.7746531,2.939600731810608,1.663641853060352,3.49187752014729,29,300.3163155496763,3.0,18.4,60200,2615.0
14990,       (2015 TC178),5.8247e-06,3.3156e-05,0.0001107,8.9438e-05,0.00054413,0.012842,4.6508e-05,4.4144e-06,0.060328,0.0294,2.619341922853712,0.4026930617571047,10.35052589818265,75.26007048148082,353.6559763387266,3.674132741556415,1.564551104151009,4.23932286153729,63,297.6156469995099,4.0,19.7,60200,92.0
4414,474189 (1999 XW8),8.5445e-08,1.3805e-08,1.2074e-05,1.706e-05,2.0305e-05,8.992e-06,1.9495e-08,1.8104e-09,4.125e-05,1.2278e-05,2.635268770498504,0.4121845072611518,28.75328420641192,70.67513345670102,285.4843671647488,3.721485730167132,1.549051810829877,4.27804723461429,175,229.935714499885,0.0,16.41,60200,8146.0
12378,       (2014 FX56),7.2819e-07,1.8789e-07,9.9184e-05,4.23e-05,0.001854,0.001442,2.1002e-07,5.8667e-08,0.0037006,0.00014049,1.862605447348918,0.1178136132148136,26.87844485391437,128.6125528397767,6.917229852680161,2.082045725094688,1.643165169603148,2.54208170675466,26,310.591359750562,1.0,18.95,60200,4784.0
11311,       (2013 AY60),0.0072195,0.047301,0.028597,0.04062,0.25358,0.12022,0.071464,0.0059916,0.30615,42.362,2.672061708638763,0.5108510380695995,2.849282161611496,120.4427713284977,4.205786079693288,4.037087206282902,1.307036210994623,4.36795270750267,22,357.4614177249503,9.0,21.78,56302,4.0
2413,310458 (2000 QA180),1.3502e-09,1.756e-09,9.5787e-08,2.2199e-07,6.8829e-07,1.3516e-06,2.2909e-09,3.3777e-10,5.2736e-06,1.4466e-06,2.260908270779853,0.3045871373343367,23.31123063319569,354.6315039682535,95.8246764167106,2.949551848752214,1.572264692807492,3.3996375392044,1053,206.6045413101806,0.0,16.09,60200,7945.0
8480,       (2007 VG301),1.5866e-07,9.9668e-09,7.649e-06,2.7436e-05,8.147e-05,4.9716e-05,1.3389e-08,2.0876e-09,0.00016368,8.0721e-06,2.185157828941334,0.3434025727572987,11.57836109712514,74.79121015803257,354.2752896284325,2.935546649280542,1.434769008602127,3.23022235269308,96,315.2846333056983,0.0,19.64,60200,5848.0
4997,509024 (2005 PZ1),2.0671e-07,1.6061e-07,1.5954e-05,2.1236e-05,0.00012126,0.00020312,2.2607e-07,2.5023e-08,0.00084444,0.00013801,2.459793747661046,0.407510693976084,18.28281554344174,356.3421481834006,22.1572532994747,3.462186004808432,1.457401490513661,3.85794686780239,251,231.0086214454424,1.0,17.14,60200,6083.0
8272,       (2007 RX118),7.1124e-07,2.2459e-07,9.6366e-06,0.0001534,0.00016733,0.00017817,3.0487e-07,3.1116e-08,0.00076628,0.00019757,2.577977788436549,0.357444677419532,3.096472550699281,26.92780888272024,301.7138009306907,3.499462227418969,1.656493349454128,4.13930052982394,75,327.0044911319847,1.0,18.5,60200,5706.0
3674,415811 (2001 PK49),5.8444e-08,8.8316e-09,9.9763e-06,2.3547e-05,2.9104e-05,8.9774e-06,1.241e-08,1.1812e-09,3.831e-05,7.8241e-06,2.614586344686384,0.405223692517987,14.96654977762492,222.3284479283874,99.46253231785144,3.674078677687307,1.555094011685461,4.22778297187907,156,87.65101611319234,0.0,18.03,60200,7769.0
17105,       (2017 BZ30),1.5134e-07,4.522e-08,1.9757e-05,1.3261e-05,2.2678e-05,1.7055e-05,6.3484e-08,9.0365e-09,5.9693e-05,3.6969e-05,2.226630938051673,0.4039003266798737,40.30505780534602,351.399825950498,202.2813612437239,3.125967901326257,1.327293974777088,3.32261912790396,256,324.7301719890977,0.0,17.29,60200,4105.0
18513,       (2018 AP3),1.8342e-05,9.4717e-05,0.00070387,0.0002388,0.0010067,0.032061,0.0001314,1.5131e-05,0.16331,0.080982,2.435269272483847,0.3873343473817481,25.18088867595968,150.3252258180955,329.1845241070318,3.378532706840202,1.492005838127491,3.80039454250077,32,183.5655399347527,5.0,19.0,60200,69.0
5429,541958 (2012 FL),1.0595e-07,5.4212e-08,8.7565e-06,8.1958e-06,2.5219e-05,3.504e-05,7.4186e-08,7.2706e-09,0.00015958,4.8001e-05,2.611730934342337,0.3684390110261154,27.52247864208218,208.0422596406351,277.8801125281961,3.57399449685774,1.649467371826934,4.22085907051816,178,287.0000603418265,0.0,17.23,60200,5704.0
4379,470069 (2006 ST278),5.5916e-08,1.0717e-08,7.461e-06,4.9007e-05,5.1652e-05,1.6517e-05,1.3643e-08,2.1529e-09,5.4767e-05,8.7526e-06,2.221961854333385,0.2730127133542095,7.767806745814078,248.2531554166689,83.24523133343376,2.828585689154493,1.615338019512277,3.31217367124174,238,66.86999348356971,0.0,17.56,60200,5736.0
11158,       (2012 UY196),1.571e-07,1.1864e-08,1.3794e-05,3.7264e-05,0.0001252,7.6414e-05,1.5001e-08,2.353e-09,0.00025902,9.7142e-06,2.233371439427638,0.2644347806919277,9.07443021229352,51.04999696495904,267.3477626659841,2.823952526216301,1.642790352638976,3.3377179882757,67,142.1227487290398,0.0,18.94,60200,3691.0
11976,       (2013 TR103),9.3073e-08,1.9279e-08,1.1048e-05,8.9847e-05,9.7806e-05,4.3522e-05,2.2713e-08,5.0595e-09,0.00013004,1.4925e-05,1.996677501233839,0.1780978366770554,5.088651728560043,218.7155754356611,145.0830246728572,2.352281444745335,1.641073557722344,2.82143525477575,57,199.2619746714267,0.0,19.68,60200,7885.0
12113,       (2013 VP60),3.9773e-07,3.8762e-08,3.1665e-05,4.1307e-05,0.0005494,0.00043925,4.3178e-08,1.3991e-08,0.0010388,2.8156e-05,1.757681922854991,0.1139090848844648,19.61215218246637,258.5325195850714,140.916041809626,1.95789786220537,1.557465983504613,2.33033646765378,92,81.2466530662475,1.0,18.83,60200,2645.0
10182,       (2011 QP24),8.0256e-05,0.0005586,0.0014395,0.0033006,0.019078,0.5187,0.00071068,0.00011802,1.8059,0.45163,2.177629599170177,0.2722463549758746,3.879848186137003,324.8393968896958,16.57271603925832,2.770481320031832,1.584777878308521,3.21354376387819,16,268.507912739312,6.0,20.009,60200,37.0
11351,       (2013 BB27),2.6899e-07,2.2541e-08,1.3376e-05,3.657e-05,7.3688e-05,5.0684e-05,2.8835e-08,4.139e-09,0.00017772,1.8743e-05,2.303315025968476,0.279207232578507,21.8082140384841,95.2811518208903,282.7354773869407,2.946417240125626,1.660212811811326,3.49573267086293,43,91.61125218245168,0.0,18.1,60200,3624.0
8957,       (2009 AV19),0.3837,0.059025,8.987,3.2287,31.996,73.0,0.077285,0.01002,244.78,49.856,2.376801241812581,0.3093670163359103,12.58639069928759,302.402134975343,346.7360671748559,3.112105150415625,1.641497333209536,3.66435465959224,11,192.2300900193757,9.0,16.821,54840,14.0
8720,       (2008 SL25),6.8873e-08,1.4628e-08,1.3043e-05,9.6647e-05,0.00010256,3.4009e-05,1.8711e-08,2.7574e-09,0.00011641,1.2099e-05,2.279250255307806,0.2791272978787152,5.147099922566071,357.000746144427,285.3557676529461,2.915451220261245,1.643049290354366,3.44109149686344,61,169.256123615136,0.0,18.89,60200,6793.0
14322,       (2015 KR),9.8534e-08,2.0768e-08,1.9769e-05,1.7717e-05,7.9682e-05,7.6363e-05,2.2876e-08,7.4162e-09,0.00018202,1.5117e-05,1.765229783588904,0.1014930662304313,22.37371876895219,65.24221917949133,293.0038542077541,1.944388366926622,1.586071200251186,2.34536301271894,39,72.37870310239555,0.0,19.82,60200,3816.0
18163,       (2017 UH2),2.8286e-07,1.1089e-07,7.4191e-06,3.7097e-05,4.8057e-05,2.5952e-05,1.5386e-07,1.5152e-08,7.9382e-05,9.7815e-05,2.59225874888116,0.3875688790753625,5.871722933252615,346.9141249312267,59.33457048902362,3.596937566458333,1.587579931303987,4.17374321070854,189,145.6500175742635,0.0,18.64,60200,2891.0
13237,       (2014 RE73),4.5735e-07,1.9058e-07,6.001e-06,5.9091e-05,6.5198e-05,8.1614e-05,2.3868e-07,4.0722e-08,0.00027749,0.00015374,2.167805531103283,0.2523735529646414,4.081986314776097,134.4377519814982,185.6574784125156,2.71490231512422,1.620708747082346,3.19182213599864,68,328.3716161283789,1.0,19.2,60200,2149.0
10494,       (2011 WU30),3.524e-05,0.00010411,0.00036423,0.0015802,0.0071971,0.091423,0.00013509,2.1406e-05,0.32891,0.084631,2.20140379217555,0.2975855713244832,9.15295128947583,159.4879014226985,197.379878258618,2.856509797385995,1.546297786965106,3.26631276126371,32,249.6775733838526,5.0,19.9,60200,67.0
11870,       (2013 RL83),4.8361e-07,2.4272e-08,5.7632e-06,0.00013501,0.00016917,5.0994e-05,3.067e-08,4.9108e-09,0.00017015,1.9794e-05,2.215632873734998,0.2636042495313545,4.875371959451801,321.986675818041,18.38952261415596,2.799683114652911,1.631582632817086,3.29803228417873,115,22.37920592584278,0.0,18.83,60200,7459.0
7723,       (2005 VT70),1.0685e-07,3.2135e-08,1.6362e-05,3.7533e-05,4.3773e-05,1.8469e-05,4.5542e-08,3.6804e-09,9.1223e-05,2.9366e-05,2.781982483849806,0.4171877163691196,21.76239825508463,228.2536478615112,281.1675494001375,3.942591403265998,1.621373564433614,4.64023300823239,38,266.3108640239747,0.0,17.84,60200,6562.0
5744,584359 (2017 AA17),1.0895e-07,4.3805e-08,8.6852e-06,1.4841e-05,2.021e-05,3.2307e-05,5.7679e-08,8.7774e-09,0.00011039,3.5793e-05,2.224232349605805,0.3167199822268384,23.61487050937604,310.4263203086036,198.3526687988357,2.928691179841315,1.519773519370296,3.31725174815911,226,341.7418288257542,0.0,17.11,60200,5848.0
17791,       (2017 QT107),6.6322e-06,3.7393e-05,0.00011908,0.00013918,0.0015312,0.015618,4.925e-05,7.3057e-06,0.060583,0.030709,2.246820925415099,0.3171079063714896,6.098687811634489,165.7687162977399,201.2824023885085,2.959305605065133,1.534336245765064,3.36791321660504,26,275.3279143266047,4.0,19.8,60200,88.0
